{
  "type": "FeatureCollection",
  "features": [
    {
      "type": "Feature",
      "properties": {
        "norad_id": 34614,
        "name": "COSMOS 2251 DEB",
        "group": "cosmos-2251-debris",
        "lat": -58.83447895888275,
        "lon": -166.65317570709016,
        "alt_km": 852.246855937924,
        "timestamp": "2025-12-12T05:47:29.166160+00:00",
        "meta_object_name": "COSMOS 2251 DEB",
        "meta_object_id": "1993-036WK",
        "meta_epoch": "2025-12-11T23:41:34.355616",
        "meta_mean_motion": 14.17468731,
        "meta_eccentricity": 0.01972895,
        "meta_inclination": 73.88,
        "meta_ra_of_asc_node": 345.2379,
        "meta_arg_of_pericenter": 339.2204,
        "meta_mean_anomaly": 49.7663,
        "meta_ephemeris_type": 0,
        "meta_classification_type": "U",
        "meta_norad_cat_id": 34614,
        "meta_element_set_no": 999,
        "meta_rev_at_epoch": 84756,
        "meta_bstar": 0.0083262333,
        "meta_mean_motion_dot": 0.00020474,
        "meta_mean_motion_ddot": 0,
        "tle_line1": "1 34614U 93036WK  25345.98720319  .00020474  00000+0  83262-2 0  9996",
        "tle_line2": "2 34614  73.8800 345.2379 0197289 339.2204  49.7663 14.17468731847565"
      },
      "geometry": {
        "type": "Point",
        "coordinates": [
          -166.65317570709016,
          -58.83447895888275
        ]
      }
    },
    {
      "type": "Feature",
      "properties": {
        "norad_id": 34615,
        "name": "COSMOS 2251 DEB",
        "group": "cosmos-2251-debris",
        "lat": -70.85115469611158,
        "lon": 170.63263189696272,
        "alt_km": 900.3140497309714,
        "timestamp": "2025-12-12T05:47:29.166170+00:00",
        "meta_object_name": "COSMOS 2251 DEB",
        "meta_object_id": "1993-036WL",
        "meta_epoch": "2025-12-11T15:13:30.717120",
        "meta_mean_motion": 13.52202046,
        "meta_eccentricity": 0.04013404,
        "meta_inclination": 74.005,
        "meta_ra_of_asc_node": 295.914,
        "meta_arg_of_pericenter": 203.3816,
        "meta_mean_anomaly": 338.769,
        "meta_ephemeris_type": 0,
        "meta_classification_type": "U",
        "meta_norad_cat_id": 34615,
        "meta_element_set_no": 999,
        "meta_rev_at_epoch": 82800,
        "meta_bstar": 0.00021166372,
        "meta_mean_motion_dot": 2.1e-06,
        "meta_mean_motion_ddot": 0,
        "tle_line1": "1 34615U 93036WL  25345.63438330  .00000210  00000+0  21166-3 0  9990",
        "tle_line2": "2 34615  74.0050 295.9140 0401340 203.3816 338.7690 13.52202046828001"
      },
      "geometry": {
        "type": "Point",
        "coordinates": [
          170.63263189696272,
          -70.85115469611158
        ]
      }
    },
    {
      "type": "Feature",
      "properties": {
        "norad_id": 34619,
        "name": "COSMOS 2251 DEB",
        "group": "cosmos-2251-debris",
        "lat": -35.81056871917042,
        "lon": -171.01525124904157,
        "alt_km": 624.3726136202558,
        "timestamp": "2025-12-12T05:47:29.166180+00:00",
        "meta_object_name": "COSMOS 2251 DEB",
        "meta_object_id": "1993-036WQ",
        "meta_epoch": "2025-12-11T07:00:35.437248",
        "meta_mean_motion": 14.64640802,
        "meta_eccentricity": 0.0094699,
        "meta_inclination": 74.0441,
        "meta_ra_of_asc_node": 202.721,
        "meta_arg_of_pericenter": 297.92,
        "meta_mean_anomaly": 61.2403,
        "meta_ephemeris_type": 0,
        "meta_classification_type": "U",
        "meta_norad_cat_id": 34619,
        "meta_element_set_no": 999,
        "meta_rev_at_epoch": 89277,
        "meta_bstar": 0.00036676279,
        "meta_mean_motion_dot": 2.048e-05,
        "meta_mean_motion_ddot": 0,
        "tle_line1": "1 34619U 93036WQ  25345.29207682  .00002048  00000+0  36676-3 0  9993",
        "tle_line2": "2 34619  74.0441 202.7210 0094699 297.9200  61.2403 14.64640802892779"
      },
      "geometry": {
        "type": "Point",
        "coordinates": [
          -171.01525124904157,
          -35.81056871917042
        ]
      }
    },
    {
      "type": "Feature",
      "properties": {
        "norad_id": 34620,
        "name": "COSMOS 2251 DEB",
        "group": "cosmos-2251-debris",
        "lat": -45.112894727055846,
        "lon": 57.15126508291655,
        "alt_km": 684.9084109167152,
        "timestamp": "2025-12-12T05:47:29.166190+00:00",
        "meta_object_name": "COSMOS 2251 DEB",
        "meta_object_id": "1993-036WR",
        "meta_epoch": "2025-12-11T02:13:42.946752",
        "meta_mean_motion": 14.49056132,
        "meta_eccentricity": 0.00809081,
        "meta_inclination": 74.0509,
        "meta_ra_of_asc_node": 222.6176,
        "meta_arg_of_pericenter": 259.4219,
        "meta_mean_anomaly": 99.7819,
        "meta_ephemeris_type": 0,
        "meta_classification_type": "U",
        "meta_norad_cat_id": 34620,
        "meta_element_set_no": 999,
        "meta_rev_at_epoch": 86803,
        "meta_bstar": 0.0032771066,
        "meta_mean_motion_dot": 0.00012967,
        "meta_mean_motion_ddot": 0,
        "tle_line1": "1 34620U 93036WR  25345.09285818  .00012967  00000+0  32771-2 0  9992",
        "tle_line2": "2 34620  74.0509 222.6176 0080908 259.4219  99.7819 14.49056132868038"
      },
      "geometry": {
        "type": "Point",
        "coordinates": [
          57.15126508291655,
          -45.112894727055846
        ]
      }
    },
    {
      "type": "Feature",
      "properties": {
        "norad_id": 34622,
        "name": "COSMOS 2251 DEB",
        "group": "cosmos-2251-debris",
        "lat": -73.8188521886663,
        "lon": -132.51376833919778,
        "alt_km": 859.84644360121,
        "timestamp": "2025-12-12T05:47:29.166200+00:00",
        "meta_object_name": "COSMOS 2251 DEB",
        "meta_object_id": "1993-036WT",
        "meta_epoch": "2025-12-11T23:44:50.482752",
        "meta_mean_motion": 14.22040835,
        "meta_eccentricity": 0.0104345,
        "meta_inclination": 74.0426,
        "meta_ra_of_asc_node": 308.3579,
        "meta_arg_of_pericenter": 30.9905,
        "meta_mean_anomaly": 34.0072,
        "meta_ephemeris_type": 0,
        "meta_classification_type": "U",
        "meta_norad_cat_id": 34622,
        "meta_element_set_no": 999,
        "meta_rev_at_epoch": 86449,
        "meta_bstar": 0.0014307212,
        "meta_mean_motion_dot": 3.32e-05,
        "meta_mean_motion_ddot": 0,
        "tle_line1": "1 34622U 93036WT  25345.98947318  .00003320  00000+0  14307-2 0  9990",
        "tle_line2": "2 34622  74.0426 308.3579 0104345  30.9905  34.0072 14.22040835864496"
      },
      "geometry": {
        "type": "Point",
        "coordinates": [
          -132.51376833919778,
          -73.8188521886663
        ]
      }
    },
    {
      "type": "Feature",
      "properties": {
        "norad_id": 34626,
        "name": "COSMOS 2251 DEB",
        "group": "cosmos-2251-debris",
        "lat": 7.853779705992179,
        "lon": -32.875564043284925,
        "alt_km": 642.4588755059076,
        "timestamp": "2025-12-12T05:47:29.166227+00:00",
        "meta_object_name": "COSMOS 2251 DEB",
        "meta_object_id": "1993-036WX",
        "meta_epoch": "2025-12-11T23:30:32.971392",
        "meta_mean_motion": 14.72181372,
        "meta_eccentricity": 0.00265028,
        "meta_inclination": 74.0486,
        "meta_ra_of_asc_node": 325.372,
        "meta_arg_of_pericenter": 53.8313,
        "meta_mean_anomaly": 7.9456,
        "meta_ephemeris_type": 0,
        "meta_classification_type": "U",
        "meta_norad_cat_id": 34626,
        "meta_element_set_no": 999,
        "meta_rev_at_epoch": 89133,
        "meta_bstar": 0.0015600869,
        "meta_mean_motion_dot": 9.871e-05,
        "meta_mean_motion_ddot": 0,
        "tle_line1": "1 34626U 93036WX  25345.97954828  .00009871  00000+0  15601-2 0  9992",
        "tle_line2": "2 34626  74.0486 325.3720 0026502  53.8313   7.9456 14.72181372891333"
      },
      "geometry": {
        "type": "Point",
        "coordinates": [
          -32.875564043284925,
          7.853779705992179
        ]
      }
    },
    {
      "type": "Feature",
      "properties": {
        "norad_id": 34634,
        "name": "COSMOS 2251 DEB",
        "group": "cosmos-2251-debris",
        "lat": -23.993078882865092,
        "lon": -136.77179026437184,
        "alt_km": 697.3162745629061,
        "timestamp": "2025-12-12T05:47:29.166241+00:00",
        "meta_object_name": "COSMOS 2251 DEB",
        "meta_object_id": "1993-036XF",
        "meta_epoch": "2025-12-11T22:33:29.254752",
        "meta_mean_motion": 14.55655487,
        "meta_eccentricity": 0.00441937,
        "meta_inclination": 74.0528,
        "meta_ra_of_asc_node": 36.4869,
        "meta_arg_of_pericenter": 144.1222,
        "meta_mean_anomaly": 281.609,
        "meta_ephemeris_type": 0,
        "meta_classification_type": "U",
        "meta_norad_cat_id": 34634,
        "meta_element_set_no": 999,
        "meta_rev_at_epoch": 88770,
        "meta_bstar": 0.00053876908,
        "meta_mean_motion_dot": 2.356e-05,
        "meta_mean_motion_ddot": 0,
        "tle_line1": "1 34634U 93036XF  25345.93992193  .00002356  00000+0  53877-3 0  9993",
        "tle_line2": "2 34634  74.0528  36.4869 0044193 144.1222 281.6090 14.55655487887707"
      },
      "geometry": {
        "type": "Point",
        "coordinates": [
          -136.77179026437184,
          -23.993078882865092
        ]
      }
    }
  ]
}